{
  "type": "FeatureCollection",
  "features": [
    {
      "type": "Feature",
      "geometry": {
        "type": "Polygon",
        "coordinates": [
          [
            [
              -51.2977,
              -25.0655
            ],
            [
              -51.2986,
              -25.0601
            ],
            [
              -51.3086,
              -25.0548
            ],
            [
              -51.3135,
              -25.0466
            ],
            [
              -51.3157,
              -25.029
            ],
            [
              -51.3294,
              -25.0166
            ],
            [
              -51.3266,
              -25.0035
            ],
            [
              -51.3353,
              -24.9975
            ],
            [
              -51.3242,
              -24.9858
            ],
            [
              -51.3359,
              -24.9761
            ],
            [
              -51.3261,
              -24.965
            ],
            [
              -51.3297,
              -24.9605
            ],
            [
              -51.3279,
              -24.948
            ],
            [
              -51.3394,
              -24.9425
            ],
            [
              -51.3327,
              -24.9309
            ],
            [
              -51.3434,
              -24.9269
            ],
            [
              -51.3696,
              -24.9286
            ],
            [
              -51.3827,
              -24.9186
            ],
            [
              -51.3894,
              -24.923
            ],
            [
              -51.4106,
              -24.9181
            ],
            [
              -51.4056,
              -24.9106
            ],
            [
              -51.3996,
              -24.9095
            ],
            [
              -51.4028,
              -24.897
            ],
            [
              -51.3952,
              -24.8907
            ],
            [
              -51.3934,
              -24.8774
            ],
            [
              -51.3715,
              -24.8741
            ],
            [
              -51.3713,
              -24.8561
            ],
            [
              -51.3819,
              -24.8444
            ],
            [
              -51.3789,
              -24.8353
            ],
            [
              -51.3694,
              -24.8362
            ],
            [
              -51.3708,
              -24.8226
            ],
            [
              -51.362,
              -24.819
            ],
            [
              -51.3657,
              -24.8089
            ],
            [
              -51.3548,
              -24.7981
            ],
            [
              -51.3481,
              -24.7974
            ],
            [
              -51.3437,
              -24.7901
            ],
            [
              -51.3348,
              -24.7941
            ],
            [
              -51.3202,
              -24.7894
            ],
            [
              -51.3162,
              -24.782
            ],
            [
              -51.3294,
              -24.7673
            ],
            [
              -51.3328,
              -24.7596
            ],
            [
              -51.3488,
              -24.7638
            ],
            [
              -51.3606,
              -24.7591
            ],
            [
              -51.3742,
              -24.7733
            ],
            [
              -51.3852,
              -24.7549
            ],
            [
              -51.3949,
              -24.7643
            ],
            [
              -51.4101,
              -24.7563
            ],
            [
              -51.4197,
              -24.7593
            ],
            [
              -51.4299,
              -24.7725
            ],
            [
              -51.4233,
              -24.7838
            ],
            [
              -51.4367,
              -24.7979
            ],
            [
              -51.4436,
              -24.798
            ],
            [
              -51.441,
              -24.8138
            ],
            [
              -51.4302,
              -24.8195
            ],
            [
              -51.4539,
              -24.8269
            ],
            [
              -51.4479,
              -24.8369
            ],
            [
              -51.4597,
              -24.837
            ],
            [
              -51.4599,
              -24.8437
            ],
            [
              -51.4699,
              -24.8468
            ],
            [
              -51.4616,
              -24.8548
            ],
            [
              -51.4521,
              -24.8544
            ],
            [
              -51.4454,
              -24.8584
            ],
            [
              -51.4453,
              -24.869
            ],
            [
              -51.4571,
              -24.8721
            ],
            [
              -51.4578,
              -24.8804
            ],
            [
              -51.4633,
              -24.8859
            ],
            [
              -51.4723,
              -24.8871
            ],
            [
              -51.47,
              -24.8963
            ],
            [
              -51.4785,
              -24.8959
            ],
            [
              -51.4891,
              -24.9091
            ],
            [
              -51.4919,
              -24.9159
            ],
            [
              -51.5041,
              -24.9141
            ],
            [
              -51.5158,
              -24.9188
            ],
            [
              -51.5118,
              -24.9343
            ],
            [
              -51.5067,
              -24.9418
            ],
            [
              -51.5092,
              -24.9472
            ],
            [
              -51.5191,
              -24.9435
            ],
            [
              -51.5321,
              -24.9506
            ],
            [
              -51.5378,
              -24.943
            ],
            [
              -51.5439,
              -24.9525
            ],
            [
              -51.556,
              -24.9625
            ],
            [
              -51.5688,
              -24.9637
            ],
            [
              -51.5704,
              -24.9741
            ],
            [
              -51.5769,
              -24.9807
            ],
            [
              -51.5817,
              -24.9728
            ],
            [
              -51.5887,
              -24.9718
            ],
            [
              -51.5884,
              -24.9821
            ],
            [
              -51.5981,
              -24.9851
            ],
            [
              -51.6197,
              -24.9849
            ],
            [
              -51.6224,
              -24.9901
            ],
            [
              -51.617,
              -24.9987
            ],
            [
              -51.6315,
              -24.9984
            ],
            [
              -51.6478,
              -25.0025
            ],
            [
              -51.6591,
              -25.0135
            ],
            [
              -51.6777,
              -25.0303
            ],
            [
              -51.6805,
              -25.0422
            ],
            [
              -51.6868,
              -25.052
            ],
            [
              -51.6965,
              -25.0455
            ],
            [
              -51.7045,
              -25.0471
            ],
            [
              -51.715,
              -25.0428
            ],
            [
              -51.7349,
              -25.0394
            ],
            [
              -51.7495,
              -25.0422
            ],
            [
              -51.7586,
              -25.0343
            ],
            [
              -51.7677,
              -25.034
            ],
            [
              -51.7729,
              -25.0237
            ],
            [
              -51.7793,
              -25.0287
            ],
            [
              -51.7747,
              -25.0544
            ],
            [
              -51.7683,
              -25.0546
            ],
            [
              -51.762,
              -25.0656
            ],
            [
              -51.7549,
              -25.0687
            ],
            [
              -51.7449,
              -25.0642
            ],
            [
              -51.7371,
              -25.0704
            ],
            [
              -51.7304,
              -25.08
            ],
            [
              -51.7231,
              -25.0762
            ],
            [
              -51.708,
              -25.0753
            ],
            [
              -51.7029,
              -25.0713
            ],
            [
              -51.6896,
              -25.0881
            ],
            [
              -51.6759,
              -25.0825
            ],
            [
              -51.671,
              -25.094
            ],
            [
              -51.651,
              -25.0927
            ],
            [
              -51.6411,
              -25.1033
            ],
            [
              -51.6307,
              -25.1112
            ],
            [
              -51.6164,
              -25.1164
            ],
            [
              -51.6063,
              -25.1249
            ],
            [
              -51.6125,
              -25.1469
            ],
            [
              -51.6222,
              -25.1543
            ],
            [
              -51.6213,
              -25.1591
            ],
            [
              -51.559,
              -25.177
            ],
            [
              -51.543,
              -25.1637
            ],
            [
              -51.5196,
              -25.1671
            ],
            [
              -51.5031,
              -25.1577
            ],
            [
              -51.4867,
              -25.1549
            ],
            [
              -51.4795,
              -25.1559
            ],
            [
              -51.4536,
              -25.1421
            ],
            [
              -51.4445,
              -25.1396
            ],
            [
              -51.4396,
              -25.1463
            ],
            [
              -51.4198,
              -25.1507
            ],
            [
              -51.4117,
              -25.1367
            ],
            [
              -51.4075,
              -25.1441
            ],
            [
              -51.398,
              -25.1409
            ],
            [
              -51.4031,
              -25.1351
            ],
            [
              -51.3988,
              -25.1181
            ],
            [
              -51.3937,
              -25.1238
            ],
            [
              -51.3864,
              -25.1133
            ],
            [
              -51.2944,
              -25.1077
            ],
            [
              -51.302,
              -25.0902
            ],
            [
              -51.2992,
              -25.078
            ],
            [
              -51.3036,
              -25.0728
            ],
            [
              -51.2977,
              -25.0655
            ]
          ]
        ]
      },
      "properties": {
        "codarea": "4127965"
      }
    }
  ]
}
